[{"OBJECT_NAME":"STARLINK-5932","OBJECT_ID":"2023-037AF","EPOCH":"2026-03-09T21:29:17.319840","MEAN_MOTION":14.98330775,"ECCENTRICITY":0.00027938,"INCLINATION":69.9983,"RA_OF_ASC_NODE":283.8207,"ARG_OF_PERICENTER":270.9348,"MEAN_ANOMALY":89.1491,"EPHEMERIS_TYPE":0,"CLASSIFICATION_TYPE":"U","NORAD_CAT_ID":55943,"ELEMENT_SET_NO":999,"REV_AT_EPOCH":16401,"BSTAR":-2.0500938e-5,"MEAN_MOTION_DOT":-3.38e-6,"MEAN_MOTION_DDOT":0},{"OBJECT_NAME":"MINOTAUR 1 R\/B","OBJECT_ID":"2021-052D","EPOCH":"2026-03-09T21:18:39.973824","MEAN_MOTION":14.98028633,"ECCENTRICITY":0.00079769,"INCLINATION":54.9882,"RA_OF_ASC_NODE":195.5395,"ARG_OF_PERICENTER":41.2727,"MEAN_ANOMALY":318.8885,"EPHEMERIS_TYPE":0,"CLASSIFICATION_TYPE":"U","NORAD_CAT_ID":48849,"ELEMENT_SET_NO":999,"REV_AT_EPOCH":16111,"BSTAR":0.00022925551,"MEAN_MOTION_DOT":2.48e-5,"MEAN_MOTION_DDOT":0}]
